GSAT0101 (GALILEO-PFM)  
1 37846U 11060A   26132.06679816 -.00000059  00000+0  00000+0 0  9996
2 37846  57.0066 342.7409 0003801  36.9967 323.0721  1.70475700 90508
GSAT0102 (GALILEO-FM2)  
1 37847U 11060B   26132.28960389 -.00000059  00000+0  00000+0 0  9999
2 37847  57.0060 342.7355 0004102   9.0913 173.3074  1.70475944 90518
GSAT0103 (GALILEO-FM3)  
1 38857U 12055A   26132.10722166  .00000060  00000+0  00000+0 0  9997
2 38857  55.7849 102.5347 0005746 298.2049  61.7154  1.70473410 84394
GSAT0201 (GALILEO 5)    
1 40128U 14050A   26132.30487664 -.00000048  00000+0  00000+0 0  9998
2 40128  48.9147 274.9062 1669071 177.9906 182.7884  1.85519933 77656
GSAT0202 (GALILEO 6)    
1 40129U 14050B   26130.40461039 -.00000041  00000+0  00000+0 0  9999
2 40129  48.9347 274.0688 1669862 178.6457 181.8867  1.85520609 79780
GSAT0203 (GALILEO 7)    
1 40544U 15017A   26131.25816466 -.00000060  00000+0  00000+0 0  9997
2 40544  56.7986 342.6025 0001988 312.1423  47.8822  1.70476028 68576
GSAT0204 (GALILEO 8)    
1 40545U 15017B   26130.92725694 -.00000061  00000+0  00000+0 0  9994
2 40545  56.8051 342.6300 0002020 282.0074  78.0109  1.70475668 31610
GSAT0205 (GALILEO 9)    
1 40889U 15045A   26115.63255192 -.00000038  00000+0  00000+0 0  9992
2 40889  54.9613 223.1764 0005159 266.9978  92.9342  1.67410754 66085
GSAT0206 (GALILEO 10)   
1 40890U 15045B   26130.91590674  .00000006  00000+0  00000+0 0  9993
2 40890  54.9559 222.6337 0001772  27.2114 332.8341  1.70474023 66407
GSAT0209 (GALILEO 12)   
1 41174U 15079A   26131.08387511  .00000059  00000+0  00000+0 0  9997
2 41174  55.8056 102.2786 0005648 331.9247  28.0249  1.70473999 64145
GSAT0208 (GALILEO 11)   
1 41175U 15079B   26132.47731976  .00000058  00000+0  00000+0 0  9999
2 41175  55.8051 102.2375 0005004 333.6656  26.2856  1.70473864 64587
GSAT0211 (GALILEO 14)   
1 41549U 16030A   26130.25506024  .00000006  00000+0  00000+0 0  9993
2 41549  55.1062 222.7382 0002510 345.0589  14.9704  1.70474161 62028
GSAT0210 (GALILEO 13)   
1 41550U 16030B   26132.27208294  .00000007  00000+0  00000+0 0  9998
2 41550  55.1045 222.6807 0002371 211.9742 148.0484  1.70474187 62054
GSAT0207 (GALILEO 15)   
1 41859U 16069A   26132.55028573  .00000057  00000+0  00000+0 0  9998
2 41859  55.4771 102.0714 0005826 321.2672  38.6674  1.70473847 58791
GSAT0212 (GALILEO 16)   
1 41860U 16069B   26131.81717310  .00000058  00000+0  00000+0 0  9993
2 41860  55.4744 102.0869 0004742 345.0422  14.9226  1.70474050 59032
GSAT0213 (GALILEO 17)   
1 41861U 16069C   26131.01131973  .00000058  00000+0  00000+0 0  9991
2 41861  55.4763 102.1170 0005717 305.0974  54.8291  1.70474511 58880
GSAT0214 (GALILEO 18)   
1 41862U 16069D   26132.33062559  .00000058  00000+0  00000+0 0  9991
2 41862  55.4756 102.0732 0004781 311.3143  48.6217  1.70474167 59038
GSAT0215 (GALILEO 19)   
1 43055U 17079A   26129.30120246  .00000007  00000+0  00000+0 0  9994
2 43055  55.0850 222.5767 0001242 260.9196  99.1051  1.70474855 52323
GSAT0216 (GALILEO 20)   
1 43056U 17079B   26132.52527332  .00000008  00000+0  00000+0 0  9991
2 43056  55.0836 222.4881 0002383 281.1985  78.8127  1.70474865 52398
GSAT0217 (GALILEO 21)   
1 43057U 17079C   26130.98631227  .00000006  00000+0  00000+0 0  9997
2 43057  55.0824 222.5283 0002398 300.6268  59.3860  1.70474863 52352
GSAT0218 (GALILEO 22)   
1 43058U 17079D   26131.79295676  .00000007  00000+0  00000+0 0  9993
2 43058  55.0820 222.5037 0004815 272.5121  87.4694  1.70474650 52392
GSAT0221 (GALILEO 25)   
1 43564U 18060A   26129.93701904 -.00000062  00000+0  00000+0 0  9997
2 43564  57.1809 342.8137 0004311 308.7683  51.2333  1.70475907 48511
GSAT0222 (GALILEO 26)   
1 43565U 18060B   26131.91641537 -.00000058  00000+0  00000+0 0  9999
2 43565  57.1840 342.7637 0001985 278.6336  81.3865  1.70475510 48597
GSAT0219 (GALILEO 23)   
1 43566U 18060C   26129.79101278 -.00000062  00000+0  00000+0 0  9991
2 43566  57.1839 342.8226 0003067 333.7463  26.2781  1.70475821 48532
GSAT0220 (GALILEO 24)   
1 43567U 18060D   26130.59856089 -.00000060  00000+0  00000+0 0  9997
2 43567  57.1835 342.8017 0003121 326.9272  33.0943  1.70475765 48533
GSAT0223 (GALILEO 27)   
1 49809U 21116A   26131.33586507 -.00000059  00000+0  00000+0 0  9994
2 49809  57.1731 342.6714 0000571 234.4904 308.8517  1.70475869 27550
GSAT0224 (GALILEO 28)   
1 49810U 21116B   26131.13623872 -.00000059  00000+0  00000+0 0  9991
2 49810  57.1741 342.6756 0000328  94.8403  78.6024  1.70475916 27571
GSAT0225 (GALILEO 29)   
1 59598U 24079A   26131.75163814  .00000058  00000+0  00000+0 0  9997
2 59598  55.0953 102.0976 0002512 280.1927 264.1301  1.70474300 12690
GSAT0227 (GALILEO 30)   
1 59600U 24079C   26132.22126720  .00000057  00000+0  00000+0 0  9998
2 59600  55.0936 102.0828 0001530  23.5037 336.4810  1.70474232 12750
GSAT0232 (GALILEO 32)   
1 61182U 24167A   26131.39486815  .00000007  00000+0  00000+0 0  9990
2 61182  55.1957 222.3234 0005260 216.9520 211.3806  1.70474522 10259
GSAT0226 (GALILEO 31)   
1 61183U 24167B   26132.89952956  .00000009  00000+0  00000+0 0  9993
2 61183  55.1940 222.2894 0002180 206.3541 156.7677  1.70474405 10255
